STARLINK-30772          
1 58135U 23162T   23325.50001157 -.02108546  00000+0 -69713-1 0  9994
2 58135  42.9999  18.0562 0001694 282.6226 114.1504 15.33992181  5919
STARLINK-30776          
1 58136U 23162U   23325.50001157 -.02110902  00000+0 -68790-1 0  9998
2 58136  42.9999  18.0419 0001535 277.7450 124.8934 15.34447700  6008
STARLINK-30782          
1 58137U 23162V   23322.66667824 -.02037819  00000+0 -43069-1 0  9999
2 58137  42.9994  34.3675 0001453 271.3901 236.5683 15.47768936  5641
STARLINK-30769          
1 58138U 23162W   23325.50001157 -.02109081  00000+0 -65773-1 0  9994
2 58138  42.9999  18.0017 0001603 287.7928 131.4581 15.35807704  4792
STARLINK-30775          
1 58139U 23162X   23322.91667824 -.02138805  00000+0 -46483-1 0  9999
2 58139  42.9995  32.9072 0001386 274.1398 189.2665 15.47149628  5606
STARLINK-30780          
1 58140U 23162Y   23325.50001157 -.02109681  00000+0 -64834-1 0  9990
2 58140  42.9999  17.9889 0001501 287.2659 137.1964 15.36261379  4794
YAOGAN-39 04A           
1 58141U 23163A   23325.47057694  .00011100  00000+0  47133-3 0  9994
2 58141  34.9937 128.3137 0005133 162.6106 197.4784 15.22286708  4370
YAOGAN-39 04B           
1 58143U 23163C   23325.46604725  .00010018  00000+0  42579-3 0  9994
2 58143  34.9946 128.2772 0014480 163.1849 196.9348 15.22185574  4369
YAOGAN-39 04C           
1 58145U 23163E   23325.46359664  .00011784  00000+0  50132-3 0  9990
2 58145  34.9937 128.2553 0009440 155.6605 204.4557 15.22183561  4376
SHENZHOU-17 (SZ-17)     
1 58146U 23164A   23324.32090422  .00029043  00000+0  32417-3 0  9993
2 58146  41.4713 285.2639 0005534 188.4107 171.6641 15.62120953146244
COSMOS 2570             
1 58148U 23165A   23324.88409469 -.00000036  00000+0  28100-4 0  9999
2 58148  67.1501  52.3919 0006866 264.9675  95.0626 13.96673414  3467
STARLINK-30802          
1 58150U 23166A   23325.50001157 -.01849758  00000+0 -43321-1 0  9998
2 58150  53.0547 147.0753 0001043  95.8858 326.9802 15.44716779  4873
STARLINK-30834          
1 58151U 23166B   23325.50001157 -.00737547  00000+0 -17061-1 0  9992
2 58151  53.0546 147.0741 0001301 122.0340 301.4863 15.44330134  4867
STARLINK-30833          
1 58152U 23166C   23325.25001157 -.01661279  00000+0 -38052-1 0  9997
2 58152  53.0547 148.2627 0001013  93.8239  19.4443 15.45542930  4834
