[{"OBJECT_NAME":"STARLINK-30772","OBJECT_ID":"2023-162T","EPOCH":"2023-11-21T12:00:00.999648","MEAN_MOTION":15.33992181,"ECCENTRICITY":0.0001694,"INCLINATION":42.9999,"RA_OF_ASC_NODE":18.0562,"ARG_OF_PERICENTER":282.6226,"MEAN_ANOMALY":114.1504,"EPHEMERIS_TYPE":0,"CLASSIFICATION_TYPE":"U","NORAD_CAT_ID":58135,"ELEMENT_SET_NO":999,"REV_AT_EPOCH":591,"BSTAR":-0.069713,"MEAN_MOTION_DOT":-0.02108546,"MEAN_MOTION_DDOT":0},{"OBJECT_NAME":"STARLINK-30776","OBJECT_ID":"2023-162U","EPOCH":"2023-11-21T12:00:00.999648","MEAN_MOTION":15.344477,"ECCENTRICITY":0.0001535,"INCLINATION":42.9999,"RA_OF_ASC_NODE":18.0419,"ARG_OF_PERICENTER":277.745,"MEAN_ANOMALY":124.8934,"EPHEMERIS_TYPE":0,"CLASSIFICATION_TYPE":"U","NORAD_CAT_ID":58136,"ELEMENT_SET_NO":999,"REV_AT_EPOCH":600,"BSTAR":-0.06879,"MEAN_MOTION_DOT":-0.02110902,"MEAN_MOTION_DDOT":0},{"OBJECT_NAME":"STARLINK-30782","OBJECT_ID":"2023-162V","EPOCH":"2023-11-18T16:00:00.999936","MEAN_MOTION":15.47768936,"ECCENTRICITY":0.0001453,"INCLINATION":42.9994,"RA_OF_ASC_NODE":34.3675,"ARG_OF_PERICENTER":271.3901,"MEAN_ANOMALY":236.5683,"EPHEMERIS_TYPE":0,"CLASSIFICATION_TYPE":"U","NORAD_CAT_ID":58137,"ELEMENT_SET_NO":999,"REV_AT_EPOCH":564,"BSTAR":-0.043069,"MEAN_MOTION_DOT":-0.02037819,"MEAN_MOTION_DDOT":0},{"OBJECT_NAME":"STARLINK-30769","OBJECT_ID":"2023-162W","EPOCH":"2023-11-21T12:00:00.999648","MEAN_MOTION":15.35807704,"ECCENTRICITY":0.0001603,"INCLINATION":42.9999,"RA_OF_ASC_NODE":18.0017,"ARG_OF_PERICENTER":287.7928,"MEAN_ANOMALY":131.4581,"EPHEMERIS_TYPE":0,"CLASSIFICATION_TYPE":"U","NORAD_CAT_ID":58138,"ELEMENT_SET_NO":999,"REV_AT_EPOCH":479,"BSTAR":-0.065773,"MEAN_MOTION_DOT":-0.02109081,"MEAN_MOTION_DDOT":0},{"OBJECT_NAME":"STARLINK-30775","OBJECT_ID":"2023-162X","EPOCH":"2023-11-18T22:00:00.999936","MEAN_MOTION":15.47149628,"ECCENTRICITY":0.0001386,"INCLINATION":42.9995,"RA_OF_ASC_NODE":32.9072,"ARG_OF_PERICENTER":274.1398,"MEAN_ANOMALY":189.2665,"EPHEMERIS_TYPE":0,"CLASSIFICATION_TYPE":"U","NORAD_CAT_ID":58139,"ELEMENT_SET_NO":999,"REV_AT_EPOCH":560,"BSTAR":-0.046483,"MEAN_MOTION_DOT":-0.02138805,"MEAN_MOTION_DDOT":0},{"OBJECT_NAME":"STARLINK-30780","OBJECT_ID":"2023-162Y","EPOCH":"2023-11-21T12:00:00.999648","MEAN_MOTION":15.36261379,"ECCENTRICITY":0.0001501,"INCLINATION":42.9999,"RA_OF_ASC_NODE":17.9889,"ARG_OF_PERICENTER":287.2659,"MEAN_ANOMALY":137.1964,"EPHEMERIS_TYPE":0,"CLASSIFICATION_TYPE":"U","NORAD_CAT_ID":58140,"ELEMENT_SET_NO":999,"REV_AT_EPOCH":479,"BSTAR":-0.064834,"MEAN_MOTION_DOT":-0.02109681,"MEAN_MOTION_DDOT":0},{"OBJECT_NAME":"YAOGAN-39 04A","OBJECT_ID":"2023-163A","EPOCH":"2023-11-21T11:17:37.847616","MEAN_MOTION":15.22286708,"ECCENTRICITY":0.0005133,"INCLINATION":34.9937,"RA_OF_ASC_NODE":128.3137,"ARG_OF_PERICENTER":162.6106,"MEAN_ANOMALY":197.4784,"EPHEMERIS_TYPE":0,"CLASSIFICATION_TYPE":"U","NORAD_CAT_ID":58141,"ELEMENT_SET_NO":999,"REV_AT_EPOCH":437,"BSTAR":0.00047133,"MEAN_MOTION_DOT":0.000111,"MEAN_MOTION_DDOT":0},{"OBJECT_NAME":"YAOGAN-39 04B","OBJECT_ID":"2023-163C","EPOCH":"2023-11-21T11:11:06.482400","MEAN_MOTION":15.22185574,"ECCENTRICITY":0.001448,"INCLINATION":34.9946,"RA_OF_ASC_NODE":128.2772,"ARG_OF_PERICENTER":163.1849,"MEAN_ANOMALY":196.9348,"EPHEMERIS_TYPE":0,"CLASSIFICATION_TYPE":"U","NORAD_CAT_ID":58143,"ELEMENT_SET_NO":999,"REV_AT_EPOCH":436,"BSTAR":0.00042579,"MEAN_MOTION_DOT":0.00010018,"MEAN_MOTION_DDOT":0},{"OBJECT_NAME":"YAOGAN-39 04C","OBJECT_ID":"2023-163E","EPOCH":"2023-11-21T11:07:34.749696","MEAN_MOTION":15.22183561,"ECCENTRICITY":0.000944,"INCLINATION":34.9937,"RA_OF_ASC_NODE":128.2553,"ARG_OF_PERICENTER":155.6605,"MEAN_ANOMALY":204.4557,"EPHEMERIS_TYPE":0,"CLASSIFICATION_TYPE":"U","NORAD_CAT_ID":58145,"ELEMENT_SET_NO":999,"REV_AT_EPOCH":437,"BSTAR":0.00050132,"MEAN_MOTION_DOT":0.00011784,"MEAN_MOTION_DDOT":0},{"OBJECT_NAME":"SHENZHOU-17 (SZ-17)","OBJECT_ID":"2023-164A","EPOCH":"2023-11-20T07:42:06.124608","MEAN_MOTION":15.62120953,"ECCENTRICITY":0.0005534,"INCLINATION":41.4713,"RA_OF_ASC_NODE":285.2639,"ARG_OF_PERICENTER":188.4107,"MEAN_ANOMALY":171.6641,"EPHEMERIS_TYPE":0,"CLASSIFICATION_TYPE":"U","NORAD_CAT_ID":58146,"ELEMENT_SET_NO":999,"REV_AT_EPOCH":14624,"BSTAR":0.00032417,"MEAN_MOTION_DOT":0.00029043,"MEAN_MOTION_DDOT":0},{"OBJECT_NAME":"COSMOS 2570","OBJECT_ID":"2023-165A","EPOCH":"2023-11-20T21:13:05.781216","MEAN_MOTION":13.96673414,"ECCENTRICITY":0.0006866,"INCLINATION":67.1501,"RA_OF_ASC_NODE":52.3919,"ARG_OF_PERICENTER":264.9675,"MEAN_ANOMALY":95.0626,"EPHEMERIS_TYPE":0,"CLASSIFICATION_TYPE":"U","NORAD_CAT_ID":58148,"ELEMENT_SET_NO":999,"REV_AT_EPOCH":346,"BSTAR":2.81e-5,"MEAN_MOTION_DOT":-3.6e-7,"MEAN_MOTION_DDOT":0},{"OBJECT_NAME":"STARLINK-30802","OBJECT_ID":"2023-166A","EPOCH":"2023-11-21T12:00:00.999648","MEAN_MOTION":15.44716779,"ECCENTRICITY":0.0001043,"INCLINATION":53.0547,"RA_OF_ASC_NODE":147.0753,"ARG_OF_PERICENTER":95.8858,"MEAN_ANOMALY":326.9802,"EPHEMERIS_TYPE":0,"CLASSIFICATION_TYPE":"U","NORAD_CAT_ID":58150,"ELEMENT_SET_NO":999,"REV_AT_EPOCH":487,"BSTAR":-0.043321,"MEAN_MOTION_DOT":-0.01849758,"MEAN_MOTION_DDOT":0},{"OBJECT_NAME":"STARLINK-30834","OBJECT_ID":"2023-166B","EPOCH":"2023-11-21T12:00:00.999648","MEAN_MOTION":15.44330134,"ECCENTRICITY":0.0001301,"INCLINATION":53.0546,"RA_OF_ASC_NODE":147.0741,"ARG_OF_PERICENTER":122.034,"MEAN_ANOMALY":301.4863,"EPHEMERIS_TYPE":0,"CLASSIFICATION_TYPE":"U","NORAD_CAT_ID":58151,"ELEMENT_SET_NO":999,"REV_AT_EPOCH":486,"BSTAR":-0.017061,"MEAN_MOTION_DOT":-0.00737547,"MEAN_MOTION_DDOT":0},{"OBJECT_NAME":"STARLINK-30833","OBJECT_ID":"2023-166C","EPOCH":"2023-11-21T06:00:00.999648","MEAN_MOTION":15.4554293,"ECCENTRICITY":0.0001013,"INCLINATION":53.0547,"RA_OF_ASC_NODE":148.2627,"ARG_OF_PERICENTER":93.8239,"MEAN_ANOMALY":19.4443,"EPHEMERIS_TYPE":0,"CLASSIFICATION_TYPE":"U","NORAD_CAT_ID":58152,"ELEMENT_SET_NO":999,"REV_AT_EPOCH":483,"BSTAR":-0.038052,"MEAN_MOTION_DOT":-0.01661279,"MEAN_MOTION_DDOT":0}]
